BEIDOU-3 G1             
1 43683U 18085A   26052.27358088 -.00000272  00000+0  00000+0 0  9992
2 43683   2.7810 100.7642 0001388  38.6334 250.3590  1.00272691 26898
BEIDOU-3 M17            
1 43706U 18093A   26051.32476912  .00000054  00000+0  00000+0 0  9996
2 43706  54.1730 186.2605 0006613 298.6853 108.8151  1.86228196 49366
BEIDOU-3 M18            
1 43707U 18093B   26051.65294314  .00000056  00000+0  00000+0 0  9999
2 43707  54.1740 186.2410 0005905 344.8668  15.0778  1.86226306 49368
BEIDOU-3 IGSO-1         
1 44204U 19023A   26050.87976484 -.00000189  00000+0  00000+0 0  9992
2 44204  58.5356  38.8556 0026065 235.7041 311.3269  1.00274194  6036
BEIDOU-2 G8             
1 44231U 19027A   26052.27444755 -.00000241  00000+0  00000+0 0  9992
2 44231   1.8375  74.7688 0009006 267.7500  52.0354  1.00271277 24914
BEIDOU-3 IGSO-2         
1 44337U 19035A   26051.69845131 -.00000132  00000+0  00000+0 0  9995
2 44337  55.2345 159.8879 0038843 205.7828 152.4862  1.00249095 24499
BEIDOU-3 M24            
1 44542U 19061A   26051.18611183  .00000054  00000+0  00000+0 0  9996
2 44542  54.4008 186.6729 0008831  23.7248 336.2753  1.86229095 43612
BEIDOU-3 M23            
1 44543U 19061B   26051.82736245  .00000057  00000+0  00000+0 0  9998
2 44543  54.3993 186.6200 0005167  18.5493 323.6956  1.86227152 43620
BEIDOU-3 IGSO-3         
1 44709U 19073A   26051.03512714 -.00000149  00000+0  00000+0 0  9994
2 44709  54.9987 282.1649 0040259 189.3029 170.7137  1.00273211 23280
BEIDOU-3 M22            
1 44793U 19078A   26052.09952294 -.00000034  00000+0  00000+0 0  9993
2 44793  54.0410 303.9147 0007153  33.9748 326.1336  1.86232124 42481
BEIDOU-3 M21            
1 44794U 19078B   26050.62793981 -.00000029  00000+0  00000+0 0  9991
2 44794  54.0154 303.9295 0005367  30.0950 330.0029  1.86227647 42464
BEIDOU-3 M19            
1 44864U 19090A   26052.06670859  .00000000  00000+0  00000+0 0  9999
2 44864  56.4558  66.6284 0020269 290.0512 151.0385  1.86231474 42073
BEIDOU-3 M20            
1 44865U 19090B   26051.81561106  .00000001  00000+0  00000+0 0  9997
2 44865  56.4572  66.6709 0017626 301.4295  60.9234  1.86231446 42058
BEIDOU-3 G2             
1 45344U 20017A   26052.18994714 -.00000134  00000+0  00000+0 0  9995
2 45344   2.6299  45.3559 0002445 299.7214 314.4411  1.00272346 22096
BEIDOU-3 G3             
1 45807U 20040A   26052.26768751 -.00000348  00000+0  00000+0 0  9991
2 45807   2.1601  67.0816 0004766 318.4171 332.5846  1.00268830 20902
BEIDOU-3 G4             
1 56564U 23066A   26052.20615388 -.00000106  00000+0  00000+0 0  9997
2 56564   0.6706 309.2534 0001757 175.0543 261.0492  1.00272065 10231
BEIDOU-3 M28            
1 58654U 23207A   26052.31640832 -.00000004  00000+0  00000+0 0  9997
2 58654  55.6493  66.2111 0004751 298.6649  61.3312  1.86229631 14683
