[{"OBJECT_NAME":"BEIDOU-3 G1 (C59)","OBJECT_ID":"2018-085A","EPOCH":"2026-02-21T06:33:57.388032","MEAN_MOTION":1.00272691,"ECCENTRICITY":0.00013882,"INCLINATION":2.781,"RA_OF_ASC_NODE":100.7642,"ARG_OF_PERICENTER":38.6334,"MEAN_ANOMALY":250.359,"EPHEMERIS_TYPE":0,"CLASSIFICATION_TYPE":"U","NORAD_CAT_ID":43683,"ELEMENT_SET_NO":999,"REV_AT_EPOCH":2689,"BSTAR":0,"MEAN_MOTION_DOT":-2.72e-06,"MEAN_MOTION_DDOT":0},{"OBJECT_NAME":"BEIDOU-3 M17 (C36)","OBJECT_ID":"2018-093A","EPOCH":"2026-02-20T07:47:40.051968","MEAN_MOTION":1.86228196,"ECCENTRICITY":0.0006613,"INCLINATION":54.173,"RA_OF_ASC_NODE":186.2605,"ARG_OF_PERICENTER":298.6853,"MEAN_ANOMALY":108.8151,"EPHEMERIS_TYPE":0,"CLASSIFICATION_TYPE":"U","NORAD_CAT_ID":43706,"ELEMENT_SET_NO":999,"REV_AT_EPOCH":4936,"BSTAR":0,"MEAN_MOTION_DOT":5.4e-07,"MEAN_MOTION_DDOT":0},{"OBJECT_NAME":"BEIDOU-3 M18 (C37)","OBJECT_ID":"2018-093B","EPOCH":"2026-02-20T15:40:14.287296","MEAN_MOTION":1.86226306,"ECCENTRICITY":0.0005905,"INCLINATION":54.174,"RA_OF_ASC_NODE":186.241,"ARG_OF_PERICENTER":344.8668,"MEAN_ANOMALY":15.0778,"EPHEMERIS_TYPE":0,"CLASSIFICATION_TYPE":"U","NORAD_CAT_ID":43707,"ELEMENT_SET_NO":999,"REV_AT_EPOCH":4936,"BSTAR":0,"MEAN_MOTION_DOT":5.6e-07,"MEAN_MOTION_DDOT":0},{"OBJECT_NAME":"BEIDOU-3 IGSO-1 (C38)","OBJECT_ID":"2019-023A","EPOCH":"2026-02-19T21:06:51.682176","MEAN_MOTION":1.00274194,"ECCENTRICITY":0.00260651,"INCLINATION":58.5356,"RA_OF_ASC_NODE":38.8556,"ARG_OF_PERICENTER":235.7041,"MEAN_ANOMALY":311.3269,"EPHEMERIS_TYPE":0,"CLASSIFICATION_TYPE":"U","NORAD_CAT_ID":44204,"ELEMENT_SET_NO":999,"REV_AT_EPOCH":603,"BSTAR":0,"MEAN_MOTION_DOT":-1.89e-06,"MEAN_MOTION_DDOT":0},{"OBJECT_NAME":"BEIDOU-2 G8 (C01)","OBJECT_ID":"2019-027A","EPOCH":"2026-02-21T06:35:12.268320","MEAN_MOTION":1.00271277,"ECCENTRICITY":0.00090062,"INCLINATION":1.8375,"RA_OF_ASC_NODE":74.7688,"ARG_OF_PERICENTER":267.75,"MEAN_ANOMALY":52.0354,"EPHEMERIS_TYPE":0,"CLASSIFICATION_TYPE":"U","NORAD_CAT_ID":44231,"ELEMENT_SET_NO":999,"REV_AT_EPOCH":2491,"BSTAR":0,"MEAN_MOTION_DOT":-2.41e-06,"MEAN_MOTION_DDOT":0},{"OBJECT_NAME":"BEIDOU-3 IGSO-2 (C39)","OBJECT_ID":"2019-035A","EPOCH":"2026-02-20T16:45:46.193184","MEAN_MOTION":1.00249095,"ECCENTRICITY":0.00388438,"INCLINATION":55.2345,"RA_OF_ASC_NODE":159.8879,"ARG_OF_PERICENTER":205.7828,"MEAN_ANOMALY":152.4862,"EPHEMERIS_TYPE":0,"CLASSIFICATION_TYPE":"U","NORAD_CAT_ID":44337,"ELEMENT_SET_NO":999,"REV_AT_EPOCH":2449,"BSTAR":0,"MEAN_MOTION_DOT":-1.32e-06,"MEAN_MOTION_DDOT":0},{"OBJECT_NAME":"BEIDOU-3 M24 (C46)","OBJECT_ID":"2019-061A","EPOCH":"2026-02-20T04:28:00.062112","MEAN_MOTION":1.86229095,"ECCENTRICITY":0.00088319,"INCLINATION":54.4008,"RA_OF_ASC_NODE":186.6729,"ARG_OF_PERICENTER":23.7248,"MEAN_ANOMALY":336.2753,"EPHEMERIS_TYPE":0,"CLASSIFICATION_TYPE":"U","NORAD_CAT_ID":44542,"ELEMENT_SET_NO":999,"REV_AT_EPOCH":4361,"BSTAR":0,"MEAN_MOTION_DOT":5.4e-07,"MEAN_MOTION_DDOT":0},{"OBJECT_NAME":"BEIDOU-3 M23 (C45)","OBJECT_ID":"2019-061B","EPOCH":"2026-02-20T19:51:24.115680","MEAN_MOTION":1.86227152,"ECCENTRICITY":0.0005167,"INCLINATION":54.3993,"RA_OF_ASC_NODE":186.62,"ARG_OF_PERICENTER":18.5493,"MEAN_ANOMALY":323.6956,"EPHEMERIS_TYPE":0,"CLASSIFICATION_TYPE":"U","NORAD_CAT_ID":44543,"ELEMENT_SET_NO":999,"REV_AT_EPOCH":4362,"BSTAR":0,"MEAN_MOTION_DOT":5.7e-07,"MEAN_MOTION_DDOT":0},{"OBJECT_NAME":"BEIDOU-3 IGSO-3 (C40)","OBJECT_ID":"2019-073A","EPOCH":"2026-02-20T00:50:34.984896","MEAN_MOTION":1.00273211,"ECCENTRICITY":0.00402599,"INCLINATION":54.9987,"RA_OF_ASC_NODE":282.1649,"ARG_OF_PERICENTER":189.3029,"MEAN_ANOMALY":170.7137,"EPHEMERIS_TYPE":0,"CLASSIFICATION_TYPE":"U","NORAD_CAT_ID":44709,"ELEMENT_SET_NO":999,"REV_AT_EPOCH":2328,"BSTAR":0,"MEAN_MOTION_DOT":-1.49e-06,"MEAN_MOTION_DDOT":0},{"OBJECT_NAME":"BEIDOU-3 M22 (C44)","OBJECT_ID":"2019-078A","EPOCH":"2026-02-21T02:23:18.782016","MEAN_MOTION":1.86232124,"ECCENTRICITY":0.0007153,"INCLINATION":54.041,"RA_OF_ASC_NODE":303.9147,"ARG_OF_PERICENTER":33.9748,"MEAN_ANOMALY":326.1336,"EPHEMERIS_TYPE":0,"CLASSIFICATION_TYPE":"U","NORAD_CAT_ID":44793,"ELEMENT_SET_NO":999,"REV_AT_EPOCH":4248,"BSTAR":0,"MEAN_MOTION_DOT":-3.4e-07,"MEAN_MOTION_DDOT":0},{"OBJECT_NAME":"BEIDOU-3 M21 (C43)","OBJECT_ID":"2019-078B","EPOCH":"2026-02-19T15:04:13.999584","MEAN_MOTION":1.86227647,"ECCENTRICITY":0.00053679,"INCLINATION":54.0154,"RA_OF_ASC_NODE":303.9295,"ARG_OF_PERICENTER":30.095,"MEAN_ANOMALY":330.0029,"EPHEMERIS_TYPE":0,"CLASSIFICATION_TYPE":"U","NORAD_CAT_ID":44794,"ELEMENT_SET_NO":999,"REV_AT_EPOCH":4246,"BSTAR":0,"MEAN_MOTION_DOT":-2.9e-07,"MEAN_MOTION_DDOT":0},{"OBJECT_NAME":"BEIDOU-3 M19 (C41)","OBJECT_ID":"2019-090A","EPOCH":"2026-02-21T01:36:03.622176","MEAN_MOTION":1.86231474,"ECCENTRICITY":0.00202691,"INCLINATION":56.4558,"RA_OF_ASC_NODE":66.6284,"ARG_OF_PERICENTER":290.0512,"MEAN_ANOMALY":151.0385,"EPHEMERIS_TYPE":0,"CLASSIFICATION_TYPE":"U","NORAD_CAT_ID":44864,"ELEMENT_SET_NO":999,"REV_AT_EPOCH":4207,"BSTAR":0,"MEAN_MOTION_DOT":0,"MEAN_MOTION_DDOT":0},{"OBJECT_NAME":"BEIDOU-3 M20 (C42)","OBJECT_ID":"2019-090B","EPOCH":"2026-02-20T19:34:28.795584","MEAN_MOTION":1.86231446,"ECCENTRICITY":0.00176267,"INCLINATION":56.4572,"RA_OF_ASC_NODE":66.6709,"ARG_OF_PERICENTER":301.4295,"MEAN_ANOMALY":60.9234,"EPHEMERIS_TYPE":0,"CLASSIFICATION_TYPE":"U","NORAD_CAT_ID":44865,"ELEMENT_SET_NO":999,"REV_AT_EPOCH":4205,"BSTAR":0,"MEAN_MOTION_DOT":1e-08,"MEAN_MOTION_DDOT":0},{"OBJECT_NAME":"BEIDOU-3 G2 (C60)","OBJECT_ID":"2020-017A","EPOCH":"2026-02-21T04:33:31.432896","MEAN_MOTION":1.00272346,"ECCENTRICITY":0.00024458,"INCLINATION":2.6299,"RA_OF_ASC_NODE":45.3559,"ARG_OF_PERICENTER":299.7214,"MEAN_ANOMALY":314.4411,"EPHEMERIS_TYPE":0,"CLASSIFICATION_TYPE":"U","NORAD_CAT_ID":45344,"ELEMENT_SET_NO":999,"REV_AT_EPOCH":2209,"BSTAR":0,"MEAN_MOTION_DOT":-1.34e-06,"MEAN_MOTION_DDOT":0},{"OBJECT_NAME":"BEIDOU-3 G3 (C61)","OBJECT_ID":"2020-040A","EPOCH":"2026-02-21T06:25:28.200864","MEAN_MOTION":1.0026883,"ECCENTRICITY":0.00047669,"INCLINATION":2.1601,"RA_OF_ASC_NODE":67.0816,"ARG_OF_PERICENTER":318.4171,"MEAN_ANOMALY":332.5846,"EPHEMERIS_TYPE":0,"CLASSIFICATION_TYPE":"U","NORAD_CAT_ID":45807,"ELEMENT_SET_NO":999,"REV_AT_EPOCH":2090,"BSTAR":0,"MEAN_MOTION_DOT":-3.48e-06,"MEAN_MOTION_DDOT":0},{"OBJECT_NAME":"BEIDOU-3 G4 (C62)","OBJECT_ID":"2023-066A","EPOCH":"2026-02-21T04:56:51.695232","MEAN_MOTION":1.00272065,"ECCENTRICITY":0.00017579,"INCLINATION":0.6706,"RA_OF_ASC_NODE":309.2534,"ARG_OF_PERICENTER":175.0543,"MEAN_ANOMALY":261.0492,"EPHEMERIS_TYPE":0,"CLASSIFICATION_TYPE":"U","NORAD_CAT_ID":56564,"ELEMENT_SET_NO":999,"REV_AT_EPOCH":1023,"BSTAR":0,"MEAN_MOTION_DOT":-1.06e-06,"MEAN_MOTION_DDOT":0},{"OBJECT_NAME":"BEIDOU-3 M28 (C50)","OBJECT_ID":"2023-207A","EPOCH":"2026-02-21T07:35:37.678848","MEAN_MOTION":1.86229631,"ECCENTRICITY":0.00047517,"INCLINATION":55.6493,"RA_OF_ASC_NODE":66.2111,"ARG_OF_PERICENTER":298.6649,"MEAN_ANOMALY":61.3312,"EPHEMERIS_TYPE":0,"CLASSIFICATION_TYPE":"U","NORAD_CAT_ID":58654,"ELEMENT_SET_NO":999,"REV_AT_EPOCH":1468,"BSTAR":0,"MEAN_MOTION_DOT":-4e-08,"MEAN_MOTION_DDOT":0}]